{
  "type": "FeatureCollection",
  "features": [
    {
      "type": "Feature",
      "properties": {
        "norad_id": 36083,
        "name": "IRIDIUM 33 DEB",
        "group": "iridium-33-debris",
        "lat": -80.27969359106623,
        "lon": -126.15071631542973,
        "alt_km": 744.9712480337012,
        "timestamp": "2025-12-17T21:39:46.075493+00:00",
        "meta_object_name": "IRIDIUM 33 DEB",
        "meta_object_id": "1997-051VQ",
        "meta_epoch": "2025-12-16T21:09:41.480640",
        "meta_mean_motion": 14.43222397,
        "meta_eccentricity": 0.00256692,
        "meta_inclination": 86.3437,
        "meta_ra_of_asc_node": 32.3703,
        "meta_arg_of_pericenter": 208.6135,
        "meta_mean_anomaly": 151.3659,
        "meta_ephemeris_type": 0,
        "meta_classification_type": "U",
        "meta_norad_cat_id": 36083,
        "meta_element_set_no": 999,
        "meta_rev_at_epoch": 85509,
        "meta_bstar": 0.00040983827,
        "meta_mean_motion_dot": 1.403e-05,
        "meta_mean_motion_ddot": 0,
        "tle_line1": "1 36083U 97051VQ  25350.88173010  .00001403  00000+0  40984-3 0  9990",
        "tle_line2": "2 36083  86.3437  32.3703 0025669 208.6135 151.3659 14.43222397855098"
      },
      "geometry": {
        "type": "Point",
        "coordinates": [
          -126.15071631542973,
          -80.27969359106623
        ]
      }
    },
    {
      "type": "Feature",
      "properties": {
        "norad_id": 36390,
        "name": "IRIDIUM 33 DEB",
        "group": "iridium-33-debris",
        "lat": -75.25197077880081,
        "lon": -77.23808700987647,
        "alt_km": 673.0968043296352,
        "timestamp": "2025-12-17T21:39:46.075502+00:00",
        "meta_object_name": "IRIDIUM 33 DEB",
        "meta_object_id": "1997-051VU",
        "meta_epoch": "2025-12-10T04:13:18.491808",
        "meta_mean_motion": 14.73548967,
        "meta_eccentricity": 0.00303441,
        "meta_inclination": 86.2912,
        "meta_ra_of_asc_node": 300.5678,
        "meta_arg_of_pericenter": 170.4809,
        "meta_mean_anomaly": 189.6991,
        "meta_ephemeris_type": 0,
        "meta_classification_type": "U",
        "meta_norad_cat_id": 36390,
        "meta_element_set_no": 999,
        "meta_rev_at_epoch": 66224,
        "meta_bstar": 0.0016206136,
        "meta_mean_motion_dot": 0.00010646,
        "meta_mean_motion_ddot": 0,
        "tle_line1": "1 36390U 97051VU  25344.17590847  .00010646  00000+0  16206-2 0  9995",
        "tle_line2": "2 36390  86.2912 300.5678 0030344 170.4809 189.6991 14.73548967662240"
      },
      "geometry": {
        "type": "Point",
        "coordinates": [
          -77.23808700987647,
          -75.25197077880081
        ]
      }
    },
    {
      "type": "Feature",
      "properties": {
        "norad_id": 36483,
        "name": "IRIDIUM 33 DEB",
        "group": "iridium-33-debris",
        "lat": 67.06178367781199,
        "lon": -138.32406908030785,
        "alt_km": 724.7804636525789,
        "timestamp": "2025-12-17T21:39:46.075511+00:00",
        "meta_object_name": "IRIDIUM 33 DEB",
        "meta_object_id": "1997-051VZ",
        "meta_epoch": "2025-12-16T21:53:24.442080",
        "meta_mean_motion": 14.45825155,
        "meta_eccentricity": 0.00113618,
        "meta_inclination": 86.3797,
        "meta_ra_of_asc_node": 50.7036,
        "meta_arg_of_pericenter": 114.4564,
        "meta_mean_anomaly": 245.7824,
        "meta_ephemeris_type": 0,
        "meta_classification_type": "U",
        "meta_norad_cat_id": 36483,
        "meta_element_set_no": 999,
        "meta_rev_at_epoch": 65206,
        "meta_bstar": 0.00037285473,
        "meta_mean_motion_dot": 1.343e-05,
        "meta_mean_motion_ddot": 0,
        "tle_line1": "1 36483U 97051VZ  25350.91208845  .00001343  00000+0  37285-3 0  9996",
        "tle_line2": "2 36483  86.3797  50.7036 0011361 114.4564 245.7824 14.45825155652065"
      },
      "geometry": {
        "type": "Point",
        "coordinates": [
          -138.32406908030785,
          67.06178367781199
        ]
      }
    },
    {
      "type": "Feature",
      "properties": {
        "norad_id": 36490,
        "name": "IRIDIUM 33 DEB",
        "group": "iridium-33-debris",
        "lat": -34.414991571106924,
        "lon": -169.3691925126705,
        "alt_km": 650.3974173171455,
        "timestamp": "2025-12-17T21:39:46.075520+00:00",
        "meta_object_name": "IRIDIUM 33 DEB",
        "meta_object_id": "1997-051WG",
        "meta_epoch": "2025-12-17T07:40:51.371328",
        "meta_mean_motion": 14.76289273,
        "meta_eccentricity": 0.00054274,
        "meta_inclination": 86.3656,
        "meta_ra_of_asc_node": 8.3978,
        "meta_arg_of_pericenter": 73.7746,
        "meta_mean_anomaly": 286.407,
        "meta_ephemeris_type": 0,
        "meta_classification_type": "U",
        "meta_norad_cat_id": 36490,
        "meta_element_set_no": 999,
        "meta_rev_at_epoch": 86552,
        "meta_bstar": 0.0012339022,
        "meta_mean_motion_dot": 8.579e-05,
        "meta_mean_motion_ddot": 0,
        "tle_line1": "1 36490U 97051WG  25351.32003902  .00008579  00000+0  12339-2 0  9997",
        "tle_line2": "2 36490  86.3656   8.3978 0005427  73.7746 286.4070 14.76289273865527"
      },
      "geometry": {
        "type": "Point",
        "coordinates": [
          -169.3691925126705,
          -34.414991571106924
        ]
      }
    },
    {
      "type": "Feature",
      "properties": {
        "norad_id": 36493,
        "name": "IRIDIUM 33 DEB",
        "group": "iridium-33-debris",
        "lat": -66.71609016358383,
        "lon": 0.8745069011536071,
        "alt_km": 679.3892215562464,
        "timestamp": "2025-12-17T21:39:46.075529+00:00",
        "meta_object_name": "IRIDIUM 33 DEB",
        "meta_object_id": "1997-051WK",
        "meta_epoch": "2025-12-16T08:16:16.620384",
        "meta_mean_motion": 14.65279157,
        "meta_eccentricity": 0.00097751,
        "meta_inclination": 86.3576,
        "meta_ra_of_asc_node": 10.0789,
        "meta_arg_of_pericenter": 352.1499,
        "meta_mean_anomaly": 7.956,
        "meta_ephemeris_type": 0,
        "meta_classification_type": "U",
        "meta_norad_cat_id": 36493,
        "meta_element_set_no": 999,
        "meta_rev_at_epoch": 74571,
        "meta_bstar": 0.00084856526,
        "meta_mean_motion_dot": 4.598e-05,
        "meta_mean_motion_ddot": 0,
        "tle_line1": "1 36493U 97051WK  25350.34463681  .00004598  00000+0  84857-3 0  9997",
        "tle_line2": "2 36493  86.3576  10.0789 0009775 352.1499   7.9560 14.65279157745716"
      },
      "geometry": {
        "type": "Point",
        "coordinates": [
          0.8745069011536071,
          -66.71609016358383
        ]
      }
    },
    {
      "type": "Feature",
      "properties": {
        "norad_id": 37548,
        "name": "IRIDIUM 33 DEB",
        "group": "iridium-33-debris",
        "lat": -41.71048564309221,
        "lon": -135.61811941390494,
        "alt_km": 716.1912426458966,
        "timestamp": "2025-12-17T21:39:46.075538+00:00",
        "meta_object_name": "IRIDIUM 33 DEB",
        "meta_object_id": "1997-051XH",
        "meta_epoch": "2025-12-15T20:39:30.861504",
        "meta_mean_motion": 14.51326297,
        "meta_eccentricity": 0.00258157,
        "meta_inclination": 86.3522,
        "meta_ra_of_asc_node": 42.0105,
        "meta_arg_of_pericenter": 178.4192,
        "meta_mean_anomaly": 181.71,
        "meta_ephemeris_type": 0,
        "meta_classification_type": "U",
        "meta_norad_cat_id": 37548,
        "meta_element_set_no": 999,
        "meta_rev_at_epoch": 65577,
        "meta_bstar": 0.00067405053,
        "meta_mean_motion_dot": 2.715e-05,
        "meta_mean_motion_ddot": 0,
        "tle_line1": "1 37548U 97051XH  25349.86077386  .00002715  00000+0  67405-3 0  9996",
        "tle_line2": "2 37548  86.3522  42.0105 0025815 178.4192 181.7100 14.51326297655778"
      },
      "geometry": {
        "type": "Point",
        "coordinates": [
          -135.61811941390494,
          -41.71048564309221
        ]
      }
    },
    {
      "type": "Feature",
      "properties": {
        "norad_id": 37550,
        "name": "IRIDIUM 33 DEB",
        "group": "iridium-33-debris",
        "lat": -13.064345296111156,
        "lon": -157.57061977750277,
        "alt_km": 674.7632767856012,
        "timestamp": "2025-12-17T21:39:46.075547+00:00",
        "meta_object_name": "IRIDIUM 33 DEB",
        "meta_object_id": "1997-051XK",
        "meta_epoch": "2025-12-16T08:46:40.262592",
        "meta_mean_motion": 14.67259754,
        "meta_eccentricity": 0.0005579,
        "meta_inclination": 86.3783,
        "meta_ra_of_asc_node": 22.2681,
        "meta_arg_of_pericenter": 103.1019,
        "meta_mean_anomaly": 257.0818,
        "meta_ephemeris_type": 0,
        "meta_classification_type": "U",
        "meta_norad_cat_id": 37550,
        "meta_element_set_no": 999,
        "meta_rev_at_epoch": 86386,
        "meta_bstar": 0.00084076341,
        "meta_mean_motion_dot": 4.76e-05,
        "meta_mean_motion_ddot": 0,
        "tle_line1": "1 37550U 97051XK  25350.36574378  .00004760  00000+0  84076-3 0  9994",
        "tle_line2": "2 37550  86.3783  22.2681 0005579 103.1019 257.0818 14.67259754863861"
      },
      "geometry": {
        "type": "Point",
        "coordinates": [
          -157.57061977750277,
          -13.064345296111156
        ]
      }
    }
  ]
}